[{"OBJECT_NAME":"STARLINK-2319","OBJECT_ID":"2021-018D","EPOCH":"2026-03-09T15:17:01.512384","MEAN_MOTION":15.3019597,"ECCENTRICITY":0.0001262,"INCLINATION":53.1599,"RA_OF_ASC_NODE":216.9503,"ARG_OF_PERICENTER":122.8406,"MEAN_ANOMALY":237.2717,"EPHEMERIS_TYPE":0,"CLASSIFICATION_TYPE":"U","NORAD_CAT_ID":47790,"ELEMENT_SET_NO":999,"REV_AT_EPOCH":27709,"BSTAR":3.4593e-5,"MEAN_MOTION_DOT":6.65e-6,"MEAN_MOTION_DDOT":0},{"OBJECT_NAME":"OBJECT BE","OBJECT_ID":"2025-313BE","EPOCH":"2026-03-09T16:43:59.380320","MEAN_MOTION":15.29801687,"ECCENTRICITY":0.00072083,"INCLINATION":97.3989,"RA_OF_ASC_NODE":145.3568,"ARG_OF_PERICENTER":335.3714,"MEAN_ANOMALY":24.7181,"EPHEMERIS_TYPE":0,"CLASSIFICATION_TYPE":"U","NORAD_CAT_ID":67482,"ELEMENT_SET_NO":999,"REV_AT_EPOCH":797,"BSTAR":0.0026504328,"MEAN_MOTION_DOT":0.00077178,"MEAN_MOTION_DDOT":0}]
